{"type": "FeatureCollection", "features": [ {"type": "Feature", "properties": {"norad_id": 41836, "name": "HIMAWARI-9", "group": "weather", "lat": -0.019758277822341713, "lon": -63.6428886912976, "alt_km": 35781.829264308755, "timestamp": "2025-12-27T03:58:43.824439+00:00", "meta": {"OBJECT_NAME": "HIMAWARI-9", "OBJECT_ID": "2016-064A", "EPOCH": "2025-12-26T00:44:38.656608", "MEAN_MOTION": 1.00271993, "ECCENTRICITY": 0.00010793, "INCLINATION": 0.0124, "RA_OF_ASC_NODE": 80.1849, "ARG_OF_PERICENTER": 234.8379, "MEAN_ANOMALY": 291.7052, "EPHEMERIS_TYPE": 0, "CLASSIFICATION_TYPE": "U", "NORAD_CAT_ID": 41836, "ELEMENT_SET_NO": 999, "REV_AT_EPOCH": 3347, "BSTAR": 0, "MEAN_MOTION_DOT": -2.53e-06, "MEAN_MOTION_DDOT": 0}, "tle": {"line1": "1 41836U 16064A   25360.03100297 -.00000253  00000+0  00000+0 0  9996", "line2": "2 41836   0.0124  80.1849 0001079 234.8379 291.7052  1.00271993 33479"}}, "geometry": {"type": "Point", "coordinates": [-63.6428886912976, -0.019758277822341713]}}, {"type": "Feature", "properties": {"norad_id": 41866, "name": "GOES 16", "group": "weather", "lat": -0.04762238599782624, "lon": 50.93733364537873, "alt_km": 35797.18369118979, "timestamp": "2025-12-27T03:58:43.824450+00:00", "meta": {"OBJECT_NAME": "GOES 16", "OBJECT_ID": "2016-071A", "EPOCH": "2025-12-26T15:57:36.330048", "MEAN_MOTION": 1.00271631, "ECCENTRICITY": 0.0003274, "INCLINATION": 0.0797, "RA_OF_ASC_NODE": 100.8609, "ARG_OF_PERICENTER": 167.1325, "MEAN_ANOMALY": 322.1538, "EPHEMERIS_TYPE": 0, "CLASSIFICATION_TYPE": "U", "NORAD_CAT_ID": 41866, "ELEMENT_SET_NO": 999, "REV_AT_EPOCH": 3337, "BSTAR": 0, "MEAN_MOTION_DOT": -6.9e-07, "MEAN_MOTION_DDOT": 0}, "tle": {"line1": "1 41866U 16071A   25360.66500382 -.00000069  00000+0  00000+0 0  9990", "line2": "2 41866   0.0797 100.8609 0003274 167.1325 322.1538  1.00271631 33376"}}, "geometry": {"type": "Point", "coordinates": [50.93733364537873, -0.04762238599782624]}}, {"type": "Feature", "properties": {"norad_id": 41882, "name": "FENGYUN 4A", "group": "weather", "lat": -0.5664599002961045, "lon": -80.84578534821695, "alt_km": 35777.545105731784, "timestamp": "2025-12-27T03:58:43.824460+00:00", "meta": {"OBJECT_NAME": "FENGYUN 4A", "OBJECT_ID": "2016-077A", "EPOCH": "2025-12-26T09:22:21.494784", "MEAN_MOTION": 1.00262391, "ECCENTRICITY": 0.0004534, "INCLINATION": 1.8816, "RA_OF_ASC_NODE": 82.2577, "ARG_OF_PERICENTER": 143.1389, "MEAN_ANOMALY": 133.8992, "EPHEMERIS_TYPE": 0, "CLASSIFICATION_TYPE": "U", "NORAD_CAT_ID": 41882, "ELEMENT_SET_NO": 999, "REV_AT_EPOCH": 3319, "BSTAR": 0, "MEAN_MOTION_DOT": -3.36e-06, "MEAN_MOTION_DDOT": 0}, "tle": {"line1": "1 41882U 16077A   25360.39052656 -.00000336  00000+0  00000+0 0  9997", "line2": "2 41882   1.8816  82.2577 0004534 143.1389 133.8992  1.00262391 33190"}}, "geometry": {"type": "Point", "coordinates": [-80.84578534821695, -0.5664599002961045]}}, {"type": "Feature", "properties": {"norad_id": 41884, "name": "CYGFM05", "group": "weather", "lat": -31.581130586491398, "lon": -165.51141908021688, "alt_km": 420.58041243801017, "timestamp": "2025-12-27T03:58:43.824471+00:00", "meta": {"OBJECT_NAME": "CYGFM05", "OBJECT_ID": "2016-078A", "EPOCH": "2025-12-26T06:48:05.113728", "MEAN_MOTION": 15.48149992, "ECCENTRICITY": 0.0010446, "INCLINATION": 34.9603, "RA_OF_ASC_NODE": 318.6293, "ARG_OF_PERICENTER": 299.4852, "MEAN_ANOMALY": 60.4828, "EPHEMERIS_TYPE": 0, "CLASSIFICATION_TYPE": "U", "NORAD_CAT_ID": 41884, "ELEMENT_SET_NO": 999, "REV_AT_EPOCH": 50186, "BSTAR": 0.00037992, "MEAN_MOTION_DOT": 0.00020625, "MEAN_MOTION_DDOT": 0}, "tle": {"line1": "1 41884U 16078A   25360.28339252  .00020625  00000+0  37992-3 0  9994", "line2": "2 41884  34.9603 318.6293 0010446 299.4852  60.4828 15.48149992501868"}}, "geometry": {"type": "Point", "coordinates": [-165.51141908021688, -31.581130586491398]}}, {"type": "Feature", "properties": {"norad_id": 41885, "name": "CYGFM04", "group": "weather", "lat": -34.91398780462074, "lon": -163.3836529162149, "alt_km": 413.1855084478566, "timestamp": "2025-12-27T03:58:43.824480+00:00", "meta": {"OBJECT_NAME": "CYGFM04", "OBJECT_ID": "2016-078B", "EPOCH": "2025-12-26T05:11:40.919712", "MEAN_MOTION": 15.50945052, "ECCENTRICITY": 0.0008969, "INCLINATION": 34.9347, "RA_OF_ASC_NODE": 293.4499, "ARG_OF_PERICENTER": 323.6494, "MEAN_ANOMALY": 36.3618, "EPHEMERIS_TYPE": 0, "CLASSIFICATION_TYPE": "U", "NORAD_CAT_ID": 41885, "ELEMENT_SET_NO": 999, "REV_AT_EPOCH": 50203, "BSTAR": 0.00038817, "MEAN_MOTION_DOT": 0.00023266, "MEAN_MOTION_DDOT": 0}, "tle": {"line1": "1 41885U 16078B   25360.21644583  .00023266  00000+0  38817-3 0  9995", "line2": "2 41885  34.9347 293.4499 0008969 323.6494  36.3618 15.50945052502034"}}, "geometry": {"type": "Point", "coordinates": [-163.3836529162149, -34.91398780462074]}}, {"type": "Feature", "properties": {"norad_id": 41886, "name": "CYGFM02", "group": "weather", "lat": -2.5024196964748135, "lon": -78.23663269971364, "alt_km": 402.1972609123668, "timestamp": "2025-12-27T03:58:43.824490+00:00", "meta": {"OBJECT_NAME": "CYGFM02", "OBJECT_ID": "2016-078C", "EPOCH": "2025-12-26T04:50:47.956416", "MEAN_MOTION": 15.52365862, "ECCENTRICITY": 0.0010591, "INCLINATION": 34.9437, "RA_OF_ASC_NODE": 291.6942, "ARG_OF_PERICENTER": 325.3429, "MEAN_ANOMALY": 34.6603, "EPHEMERIS_TYPE": 0, "CLASSIFICATION_TYPE": "U", "NORAD_CAT_ID": 41886, "ELEMENT_SET_NO": 999, "REV_AT_EPOCH": 50216, "BSTAR": 0.00040372, "MEAN_MOTION_DOT": 0.00025494, "MEAN_MOTION_DDOT": 0}, "tle": {"line1": "1 41886U 16078C   25360.20194394  .00025494  00000+0  40372-3 0  9999", "line2": "2 41886  34.9437 291.6942 0010591 325.3429  34.6603 15.52365862502165"}}, "geometry": {"type": "Point", "coordinates": [-78.23663269971364, -2.5024196964748135]}}, {"type": "Feature", "properties": {"norad_id": 41887, "name": "CYGFM01", "group": "weather", "lat": -21.073056920362053, "lon": -78.38712144573249, "alt_km": 414.9901278037278, "timestamp": "2025-12-27T03:58:43.824499+00:00", "meta": {"OBJECT_NAME": "CYGFM01", "OBJECT_ID": "2016-078D", "EPOCH": "2025-12-26T14:13:22.088064", "MEAN_MOTION": 15.48759806, "ECCENTRICITY": 0.0010201, "INCLINATION": 34.9435, "RA_OF_ASC_NODE": 318.8584, "ARG_OF_PERICENTER": 294.2358, "MEAN_ANOMALY": 65.7298, "EPHEMERIS_TYPE": 0, "CLASSIFICATION_TYPE": "U", "NORAD_CAT_ID": 41887, "ELEMENT_SET_NO": 999, "REV_AT_EPOCH": 50185, "BSTAR": 0.00041171, "MEAN_MOTION_DOT": 0.00022845, "MEAN_MOTION_DDOT": 0}, "tle": {"line1": "1 41887U 16078D   25360.59261676  .00022845  00000+0  41171-3 0  9995", "line2": "2 41887  34.9435 318.8584 0010201 294.2358  65.7298 15.48759806501851"}}, "geometry": {"type": "Point", "coordinates": [-78.38712144573249, -21.073056920362053]}}, {"type": "Feature", "properties": {"norad_id": 41888, "name": "CYGFM08", "group": "weather", "lat": 33.28048865571437, "lon": 7.976324917872068, "alt_km": 413.0056718356891, "timestamp": "2025-12-27T03:58:43.824509+00:00", "meta": {"OBJECT_NAME": "CYGFM08", "OBJECT_ID": "2016-078E", "EPOCH": "2025-12-26T04:28:38.500608", "MEAN_MOTION": 15.4998199, "ECCENTRICITY": 0.00113412, "INCLINATION": 34.946, "RA_OF_ASC_NODE": 304.349, "ARG_OF_PERICENTER": 314.88, "MEAN_ANOMALY": 45.1001, "EPHEMERIS_TYPE": 0, "CLASSIFICATION_TYPE": "U", "NORAD_CAT_ID": 41888, "ELEMENT_SET_NO": 999, "REV_AT_EPOCH": 50202, "BSTAR": 0.00037787487, "MEAN_MOTION_DOT": 0.00021899, "MEAN_MOTION_DDOT": 0}, "tle": {"line1": "1 41888U 16078E   25360.18655672  .00021899  00000+0  37787-3 0  9990", "line2": "2 41888  34.9460 304.3490 0011341 314.8800  45.1001 15.49981990502029"}}, "geometry": {"type": "Point", "coordinates": [7.976324917872068, 33.28048865571437]}}, {"type": "Feature", "properties": {"norad_id": 41890, "name": "CYGFM07", "group": "weather", "lat": 34.90678488543966, "lon": 19.116533720266208, "alt_km": 410.91076006210824, "timestamp": "2025-12-27T03:58:43.824518+00:00", "meta": {"OBJECT_NAME": "CYGFM07", "OBJECT_ID": "2016-078G", "EPOCH": "2025-12-26T12:08:00.125664", "MEAN_MOTION": 15.50595573, "ECCENTRICITY": 0.0009083, "INCLINATION": 34.9475, "RA_OF_ASC_NODE": 291.1596, "ARG_OF_PERICENTER": 332.0459, "MEAN_ANOMALY": 27.9775, "EPHEMERIS_TYPE": 0, "CLASSIFICATION_TYPE": "U", "NORAD_CAT_ID": 41890, "ELEMENT_SET_NO": 999, "REV_AT_EPOCH": 50209, "BSTAR": 0.00039275, "MEAN_MOTION_DOT": 0.00023249, "MEAN_MOTION_DDOT": 0}, "tle": {"line1": "1 41890U 16078G   25360.50555701  .00023249  00000+0  39275-3 0  9996", "line2": "2 41890  34.9475 291.1596 0009083 332.0459  27.9775 15.50595573502093"}}, "geometry": {"type": "Point", "coordinates": [19.116533720266208, 34.90678488543966]}}, {"type": "Feature", "properties": {"norad_id": 41891, "name": "CYGFM03", "group": "weather", "lat": -34.19003365281046, "lon": -147.88937736279476, "alt_km": 412.89257023280334, "timestamp": "2025-12-27T03:58:43.824528+00:00", "meta": {"OBJECT_NAME": "CYGFM03", "OBJECT_ID": "2016-078H", "EPOCH": "2025-12-26T05:08:17.981664", "MEAN_MOTION": 15.50474136, "ECCENTRICITY": 0.0009067, "INCLINATION": 34.943, "RA_OF_ASC_NODE": 295.0003, "ARG_OF_PERICENTER": 316.561, "MEAN_ANOMALY": 43.4397, "EPHEMERIS_TYPE": 0, "CLASSIFICATION_TYPE": "U", "NORAD_CAT_ID": 41891, "ELEMENT_SET_NO": 999, "REV_AT_EPOCH": 50202, "BSTAR": 0.00038802, "MEAN_MOTION_DOT": 0.00022868, "MEAN_MOTION_DDOT": 0}, "tle": {"line1": "1 41891U 16078H   25360.21409701  .00022868  00000+0  38802-3 0  9994", "line2": "2 41891  34.9430 295.0003 0009067 316.5610  43.4397 15.50474136502026"}}, "geometry": {"type": "Point", "coordinates": [-147.88937736279476, -34.19003365281046]}}]}